ONEWEB-0395             
1 50475U 21132G   24318.01454427  .00000279  00000+0  75050-3 0  9992
2 50475  87.8879 136.8807 0001251  97.0403 263.0867 13.11418648140818
ONEWEB-0396             
1 50476U 21132H   24318.10517937  .00000067  00000+0  13631-3 0  9991
2 50476  87.9090  91.0822 0001683 103.0731 257.0589 13.18683728146321
ONEWEB-0397             
1 50477U 21132J   24318.42291166  .00000087  00000+0  18794-3 0  9997
2 50477  87.9087  91.0202 0001846 100.8878 259.2462 13.18688898146347
ONEWEB-0398             
1 50478U 21132K   24318.44009538 -.00000192  00000+0 -57624-3 0  9994
2 50478  87.8878 136.7695 0001087  78.6026 281.5224 13.11416560140775
ONEWEB-0399             
1 50479U 21132L   24318.04506445  .00000327  00000+0  88693-3 0  9998
2 50479  87.8876 136.8676 0001751  96.0532 264.0796 13.11416180140710
ONEWEB-0400             
1 50480U 21132M   24318.09885844  .00000083  00000+0  17679-3 0  9993
2 50480  87.9083  91.0828 0001356  94.7531 265.3756 13.18687059146302
ONEWEB-0401             
1 50481U 21132N   24318.14154476  .00000040  00000+0  69128-4 0  9990
2 50481  87.9081  91.0692 0001831  97.2125 262.9215 13.18685551146314
ONEWEB-0402             
1 50482U 21132P   24318.41025261  .00000054  00000+0  10347-3 0  9993
2 50482  87.9082  91.0132 0002298  95.1164 265.0231 13.18683202146372
